satname,norad_id,inclination_deg,eccentricity,mean_motion_rev_per_day,perigee_km,apogee_km,l1,l2
STARLINK-1316,45415,53.1545,0.0006012,15.38520999,446.3767451427775,454.5874767617861,1 45415U 20019BH  26156.48578628  .00056971  00000+0  14750-2 0  9995,2 45415  53.1545  78.9534 0006012  74.1496 286.0170 15.38520999343476
STARLINK-1286,45417,53.0454,0.0001223,15.6377104,375.94941922910584,377.6016708376201,1 45417U 20019BK  26156.05424242  .00062891  00000+0  66054-3 0  9995,2 45417  53.0454  68.0220 0001223 182.2178 177.8831 15.63771040343828
STARLINK-1308,45419,53.0459,0.0007704,15.65571585,366.3953956389678,376.79538330466585,1 45419U 20019BM  26156.53079468  .00052301  00000+0  51244-3 0  9996,2 45419  53.0459  85.1241 0007704  40.5066 319.6521 15.65571585343376
STARLINK-1329,45531,53.0422,0.0003658,15.72502234,349.28647923117205,354.21006329562806,1 45531U 20025A   26153.80029213  .00068128  00000+0  50033-3 0  9997,2 45531  53.0422  22.5236 0003658 126.4333 233.7022 15.72502234338790
STARLINK-1338,45532,53.0449,0.0003713,15.67209125,364.38838285035763,369.3972419890606,1 45532U 20025B   26152.91554605  .00056192  00000+0  51546-3 0  9995,2 45532  53.0449  33.3278 0003713  89.0725 271.0716 15.67209125338564
STARLINK-1350,45535,53.0727,0.0001438,15.38196329,450.4608698964439,452.4250570939457,1 45535U 20025E   26156.23875865  .00011059  00000+0  29953-3 0  9991,2 45535  53.0727 341.3059 0001438  83.3087 276.8080 15.38196329339629
STARLINK-1362,45538,53.1569,0.0002948,15.36926644,453.18934283809176,457.21828058067695,1 45538U 20025H   26156.78576109 -.00136723  00000+0 -37881-2 0  9999,2 45538  53.1569  49.8898 0002948 146.4216 213.6975 15.36926644338697
STARLINK-1368,45540,53.1571,0.0004333,15.37077103,451.7971834969612,457.71857019723666,1 45540U 20025K   26155.04349157  .00058170  00000+0  15781-2 0  9993,2 45540  53.1571  58.4352 0004333 112.9510 247.1952 15.37077103338414
STARLINK-1371,45542,53.0441,0.0005072,15.61243131,380.6353315859724,387.4949094170088,1 45542U 20025M   26154.00002315  .00107926  00000+0  12388-2 0  9996,2 45542  53.0441  37.4618 0005072 113.4969 151.4310 15.61243131  5901
STARLINK-1372,45543,53.157,0.0003399,15.3771717,450.5397835394524,455.1834964149075,1 45543U 20025N   26156.43331437  .00044670  00000+0  11917-2 0  9999,2 45543  53.1570  51.4180 0003399 115.5536 244.5820 15.37717170337730
STARLINK-1373,45544,53.0461,0.0003146,15.69162897,359.1725800355034,363.41302926859134,1 45544U 20025P   26153.83297628  .00055472  00000+0  47003-3 0  9992,2 45544  53.0461  34.1222 0003146  69.0124 291.1229 15.69162897338636
STARLINK-1327,45555,53.042,0.0004393,15.66660134,365.50467114086496,371.4322386935564,1 45555U 20025AA  26153.80335105  .00048442  00000+0  45541-3 0  9998,2 45555  53.0420  11.3370 0004393  66.4276 293.7200 15.66660134338943
STARLINK-1356,45564,53.0433,2.29e-05,15.64965221,373.1841763850862,373.49339397604854,1 45564U 20025AK  26156.82033102  .00054728  00000+0  54960-3 0  9994,2 45564  53.0433   9.6115 0000229  79.4148 280.6892 15.64965221339238
STARLINK-1357,45565,53.0458,0.0005527,15.69067245,357.84166281866874,365.2917312853897,1 45565U 20025AL  26155.71232803  .00059163  00000+0  50247-3 0  9993,2 45565  53.0458 331.8816 0005527 111.4658 248.6948 15.69067245339671
STARLINK-1361,45567,53.0436,0.0001216,15.6222724,380.40303067779223,382.04690750867576,1 45567U 20025AN  26156.81248332  .00118682  00000+0  13097-2 0  9994,2 45567  53.0436   7.9067 0001216 248.9080 111.1803 15.62227240339269
STARLINK-1366,45569,53.028,0.0012123,16.19312622,213.41818964483355,229.41947271310983,1 45569U 20025AQ  26156.97370890  .01402887  11803-4  73500-3 0  9996,2 45569  53.0280 308.9043 0012123 306.7189  53.2734 16.19312622340081
STARLINK-1376,45570,53.1566,0.0004236,15.38031649,449.037242375015,454.8236755262378,1 45570U 20025AR  26156.34566071  .00043371  00000+0  11457-2 0  9999,2 45570  53.1566  28.2369 0004236 106.9498 253.1971 15.38031649338957
STARLINK-1320,45572,53.0415,0.000801,15.861673,307.6802869672583,318.3995523925869,1 45572U 20025AT  26156.91668980  .00157857  00000+0  61285-3 0  9996,2 45572  53.0415 265.2011 0008010 328.6646  12.7808 15.86167300  6014
STARLINK-1321,45573,53.0426,0.0002169,15.6322435,376.88485413204853,379.8158183385076,1 45573U 20025AU  26156.91668980  .00106911  00000+0  11370-2 0  9991,2 45573  53.0426 351.3100 0002169 146.3290  20.2534 15.63224350  5891
STARLINK-1331,45578,53.0468,0.0002832,15.62966841,377.1787854418135,381.00608019256106,1 45578U 20025AZ  26156.78239757  .00113112  00000+0  12138-2 0  9991,2 45578  53.0468 358.8637 0002832 105.4204 254.7123 15.62966841339397
STARLINK-1333,45580,53.1566,0.0002642,15.34765443,459.8102190458476,463.42434520852294,1 45580U 20025BB  26153.84888815  .00045023  00000+0  13202-2 0  9991,2 45580  53.1566  41.3747 0002642 120.6726 239.4537 15.34765443338553
STARLINK-1335,45581,53.1551,0.0004755,15.36743214,452.49805332363303,458.9970775453621,1 45581U 20025BC  26156.81122690  .00066930  00000+0  18316-2 0  9995,2 45581  53.1551  24.2650 0004755 121.9436 238.2030 15.36743214339044
STARLINK-1337,45582,53.0459,0.000486,15.74005964,344.19267408171345,350.72995564376015,1 45582U 20025BD  26156.78511287  .00079226  00000+0  54409-3 0  9992,2 45582  53.0459 348.3779 0004860 101.3871 258.7693 15.74005964339525
STARLINK-1347,45586,53.0393,0.0005328,15.68194195,360.4756509193676,367.6601444583457,1 45586U 20025BH  26155.74770713  .00005029  00000+0  49237-4 0  9996,2 45586  53.0393 323.8873 0005328 161.2114 198.9099 15.68194195339774
STARLINK-1364,45589,53.0431,6.08e-05,15.68965631,361.44790000452304,362.26748335903176,1 45589U 20025BL  26155.75687397  .00053529  00000+0  45760-3 0  9999,2 45589  53.0431   0.5592 0000608 140.0658 220.0403 15.68965631339262
STARLINK-1365,45590,53.0468,0.0002795,15.58782554,389.2874284147829,393.071476311653,1 45590U 20025BM  26156.82119147  .00113539  00000+0  14306-2 0  9992,2 45590  53.0468  29.2942 0002795  99.3127 260.8201 15.58782554338972
STARLINK-1443,45660,53.1597,0.0001335,15.33516795,464.4159686168823,466.2431741914479,1 45660U 20035D   26156.70508740  .00085936  00000+0  25971-2 0  9998,2 45660  53.1597  16.5982 0001335  60.9564 299.1571 15.33516795332227
STARLINK-1446,45663,53.0234,0.0002401,15.4748227,422.46094868961427,425.72738009475506,1 45663U 20035G   26156.65722328  .00037133  00000+0  71659-3 0  9996,2 45663  53.0234 300.1732 0002401 176.2924 183.8101 15.47482270333277
STARLINK-1448,45665,53.0445,0.00049,15.67966335,361.41707520162345,368.0250761157695,1 45665U 20035J   26156.80228742  .00066555  00000+0  59023-3 0  9997,2 45665  53.0445 342.7422 0004900  93.6982 266.4594 15.67966335332682
STARLINK-1451,45668,53.0523,0.00024,15.14094127,522.0736359309203,525.386532131256,1 45668U 20035M   26156.18844865  .00022463  00000+0  12323-2 0  9992,2 45668  53.0523  29.7314 0002400  96.3097 263.8168 15.14094127331987
STARLINK-1452,45669,53.0257,0.0002684,15.58368106,390.5623923288831,394.196805639217,1 45669U 20035N   26156.15783654  .00100065  00000+0  12836-2 0  9992,2 45669  53.0257 320.8573 0002684 298.9417  61.1325 15.58368106332944
STARLINK-1453,45670,53.0406,0.0001432,15.68441098,362.3949276376188,364.3256924672178,1 45670U 20035P   26156.77073337  .00085540  00000+0  74126-3 0  9993,2 45670  53.0406 303.1963 0001432 263.0361  97.0492 15.68441098333138
STARLINK-1454,45671,53.0436,0.000217,15.66318683,367.98468122735085,370.91313351114877,1 45671U 20035Q   26155.72023273  .00053552  00000+0  50968-3 0  9998,2 45671  53.0436 349.2680 0002170  48.8836 311.2366 15.66318683332495
STARLINK-1456,45673,53.0428,0.0004465,15.65240346,369.5334356115436,375.56179697389234,1 45673U 20035S   26155.74959963  .00052587  00000+0  52252-3 0  9991,2 45673  53.0428 343.6825 0004465 143.7896 216.3421 15.65240346332594
STARLINK-1458,45675,53.0469,0.0001927,15.56678682,395.9716713032467,398.58291597201514,1 45675U 20035U   26156.91668980  .00124675  00000+0  16967-2 0  9999,2 45675  53.0469 352.4297 0001927  80.3031 307.8238 15.56678682  5923
STARLINK-1460,45676,53.1571,0.0003042,15.34880783,459.1940758186247,463.3551738511742,1 45676U 20035V   26156.81948602  .00065845  00000+0  19133-2 0  9992,2 45676  53.1571  14.6626 0003042 152.7395 207.3767 15.34880783332229
STARLINK-1392,45677,53.1546,0.0002515,15.38113146,449.9714945603355,453.4068971368479,1 45677U 20035W   26156.32193907  .00047845  00000+0  12589-2 0  9997,2 45677  53.1546  15.6862 0002515 156.3063 203.8058 15.38113146332209
STARLINK-1394,45679,53.0412,0.0004218,15.65015831,370.34551899911276,376.04094118121793,1 45679U 20035Y   26156.13521102  .00066312  00000+0  66228-3 0  9990,2 45679  53.0412 332.0659 0004218 158.3287 201.7907 15.65015831332789
STARLINK-1402,45685,53.042,0.0004965,15.57540365,391.415388161955,398.1408928965002,1 45685U 20035AE  26156.19318075  .00047404  00000+0  63466-3 0  9998,2 45685  53.0420 322.4564 0004965 179.8875 180.2138 15.57540365332933
STARLINK-1404,45686,53.1572,0.0003387,15.44299611,431.12972430180525,435.7438843968712,1 45686U 20035AF  26156.26115354  .00061688  00000+0  13172-2 0  9990,2 45686  53.1572 357.7281 0003387 167.3704 192.7388 15.44299611332453
STARLINK-1413,45689,53.1573,0.0001564,15.34710308,460.7113316525774,462.8508580326443,1 45689U 20035AJ  26155.75133393  .00040684  00000+0  11969-2 0  9994,2 45689  53.1573   4.3045 0001564 178.2986 181.8023 15.34710308332239
STARLINK-1417,45693,53.0517,0.0005283,15.16740035,512.0589989317814,519.3430281769033,1 45693U 20035AN  26156.81918234  .00035570  00000+0  17981-2 0  9990,2 45693  53.0517  13.5652 0005283 126.1419 234.0064 15.16740035332250
STARLINK-1420,45695,53.0461,0.0003956,15.6781036,362.50062947329934,367.8359326116606,1 45695U 20035AQ  26155.64417959  .00057531  00000+0  51480-3 0  9994,2 45695  53.0461 317.7194 0003956 118.9382 241.2031 15.67810360332948
